OBJECT_NAME,OBJECT_ID,EPOCH,MEAN_MOTION,ECCENTRICITY,INCLINATION,RA_OF_ASC_NODE,ARG_OF_PERICENTER,MEAN_ANOMALY,EPHEMERIS_TYPE,CLASSIFICATION_TYPE,NORAD_CAT_ID,ELEMENT_SET_NO,REV_AT_EPOCH,BSTAR,MEAN_MOTION_DOT,MEAN_MOTION_DDOT
STARLINK-5842,2023-064AV,2026-07-02T17:23:23.686944,14.98331702,.0003367,69.9994,174.4073,269.1364,90.9409,0,U,56491,999,17346,.32224E-4,.291E-5,0
STARLINK-5846,2023-064AW,2026-07-02T17:17:23.057664,14.98330640,.0003532,69.9994,174.3929,267.0231,93.0524,0,U,56492,999,17346,.28523E-4,.247E-5,0
STARLINK-5841,2023-064AX,2026-07-02T15:22:53.949216,14.98329365,.0003002,69.9998,154.6353,268.9036,91.1779,0,U,56493,999,17394,.10269E-4,.3E-6,0
STARLINK-5530,2023-064AY,2026-07-02T17:17:37.690368,14.98309254,.0003644,69.9993,174.3935,266.1055,93.9687,0,U,56494,999,17345,.40023E-3,.4683E-4,0
STARLINK-5529,2023-064AZ,2026-07-02T17:05:21.912288,14.98330328,.0003049,69.9995,174.3638,268.9032,91.1777,0,U,56495,999,17346,.22509E-4,.176E-5,0
STARLINK-5526,2023-064BA,2026-07-02T16:59:21.238080,14.98322918,.0004433,69.9996,174.3493,259.6880,100.3780,0,U,56496,999,17346,-.53153E-4,-.727E-5,0
STARLINK-5527,2023-064BB,2026-07-02T16:53:34.691136,14.98330712,.0003995,69.9994,174.3358,265.4202,94.6501,0,U,56497,999,17346,.23355E-4,.186E-5,0
STARLINK-5522,2023-064BC,2026-07-02T17:11:22.405920,14.98331183,.0003341,69.9995,174.3784,269.4153,90.6623,0,U,56498,999,17346,.38954E-4,.372E-5,0
STARLINK-5775,2023-065A,2026-07-02T17:08:50.868096,15.27577429,.0001498,43.0033,282.6912,268.5396,91.5284,0,U,56503,999,17419,-.18463E-4,-.77E-5,0
STARLINK-5716,2023-065B,2026-07-02T14:20:53.489184,15.27573575,.0001717,43.0056,283.5321,283.1382,76.9278,0,U,56504,999,17417,-.61786E-5,-.432E-5,0
STARLINK-5763,2023-065C,2026-07-02T16:32:03.029280,15.27579477,.0001428,43.0021,283.3523,270.9643,89.1045,0,U,56505,999,17418,.22323E-4,.352E-5,0
STARLINK-5340,2023-065D,2026-07-02T14:32:00.465216,15.27581301,.0001421,43.0017,272.2766,265.8089,94.2601,0,U,56506,999,17430,-.27977E-4,-.1032E-4,0
STARLINK-5333,2023-065E,2026-07-02T14:58:08.755680,15.27574256,.0001257,43.0014,250.6422,270.8258,89.2450,0,U,56507,999,17455,-.88471E-5,-.505E-5,0
STARLINK-5335,2023-065F,2026-07-02T16:48:31.580064,15.27553139,.0002202,43.0062,282.5773,269.7138,90.3461,0,U,56508,999,17419,-.81612E-4,-.2506E-4,0
STARLINK-5334,2023-065G,2026-07-02T15:30:59.817024,15.27578626,.0001121,43.0020,283.0338,264.5897,95.4827,0,U,56509,999,17418,-.55739E-4,-.1795E-4,0
STARLINK-5339,2023-065H,2026-07-02T15:19:53.963328,15.27584031,.0001253,43.0015,282.9822,270.4564,89.6144,0,U,56510,999,17418,.18266E-4,.241E-5,0
STARLINK-5351,2023-065J,2026-07-02T15:40:14.369376,15.27573604,.000138,43.0032,283.0769,275.8224,84.2470,0,U,56511,999,17418,-.90398E-5,-.511E-5,0
STARLINK-5349,2023-065K,2026-07-02T13:51:16.706880,15.27555113,.0001716,42.9996,283.3691,249.6140,110.4528,0,U,56512,999,17417,.56587E-4,.1294E-4,0
STARLINK-5329,2023-065L,2026-07-02T15:45:47.566656,15.27573566,.0001181,43.0038,283.1099,279.0970,80.9748,0,U,56513,999,17418,-.64942E-5,-.441E-5,0
STARLINK-5348,2023-065N,2026-07-02T17:25:30.099648,15.27573272,.000135,43.0028,282.7678,295.4647,64.6065,0,U,56515,999,17419,-.28549E-5,-.341E-5,0
STARLINK-5342,2023-065P,2026-07-02T17:10:41.962080,15.27575558,.0001438,43.0032,282.6945,272.0723,87.9964,0,U,56516,999,17419,-.15519E-4,-.689E-5,0
STARLINK-5345,2023-065Q,2026-07-02T14:33:50.594112,15.27577214,.0001378,43.0044,283.5846,284.1222,75.9476,0,U,56517,999,17417,-.16157E-4,-.707E-5,0
STARLINK-5346,2023-065R,2026-07-02T14:22:44.430240,15.27572674,.0001501,43.0047,283.5352,290.6239,69.4451,0,U,56518,999,17417,-.63305E-5,-.436E-5,0
STARLINK-6313,2023-065S,2026-07-02T16:17:14.617824,15.27580603,.0002195,43.0040,283.2591,274.4314,85.6287,0,U,56519,999,17418,.21226E-4,.322E-5,0
STARLINK-6344,2023-065T,2026-07-02T16:02:26.925216,15.27571895,.0001446,43.0051,283.1899,270.4549,89.6137,0,U,56520,999,17418,.22366E-4,.353E-5,0
STARLINK-6333,2023-065U,2026-07-02T16:20:14.142336,15.27576527,.0001777,43.0040,286.6824,302.7238,57.3442,0,U,56521,999,17414,.2357E-4,.386E-5,0
STARLINK-6327,2023-065V,2026-07-02T14:37:32.030400,15.27575384,.0001562,43.0019,283.5996,270.9994,89.0679,0,U,56522,999,17417,.51784E-4,.1163E-4,0
STARLINK-6328,2023-065W,2026-07-02T15:08:59.987904,15.27573983,.0001355,43.0007,283.7665,267.6441,92.4255,0,U,56523,999,17417,-.11447E-4,-.577E-5,0
STARLINK-6323,2023-065X,2026-07-02T16:33:54.067104,15.27577624,.0001439,43.0023,283.3509,267.2129,92.8558,0,U,56524,999,17418,.16063E-4,.18E-5,0
STARLINK-6329,2023-065Y,2026-07-02T17:18:23.104800,15.26743063,.0001398,42.9997,293.7910,274.6287,85.4405,0,U,56525,999,17406,.53044E-4,.1163E-4,0
