[{"name":"STARLINK-5842","l1":"1 56491U 23064AV  26183.72457971  .00000291  00000+0  32224-4 0  9990","l2":"2 56491  69.9994 174.4073 0003367 269.1364  90.9409 14.98331702173469","cat":"starlink"},{"name":"STARLINK-5846","l1":"1 56492U 23064AW  26183.72040576  .00000247  00000+0  28523-4 0  9998","l2":"2 56492  69.9994 174.3929 0003532 267.0231  93.0524 14.98330640173465","cat":"starlink"},{"name":"STARLINK-5841","l1":"1 56493U 23064AX  26183.64090219  .00000030  00000+0  10269-4 0  9997","l2":"2 56493  69.9998 154.6353 0003002 268.9036  91.1779 14.98329365173943","cat":"starlink"},{"name":"STARLINK-5530","l1":"1 56494U 23064AY  26183.72057512  .00004683  00000+0  40023-3 0  9994","l2":"2 56494  69.9993 174.3935 0003644 266.1055  93.9687 14.98309254173456","cat":"starlink"},{"name":"STARLINK-5529","l1":"1 56495U 23064AZ  26183.71205917  .00000176  00000+0  22509-4 0  9991","l2":"2 56495  69.9995 174.3638 0003049 268.9032  91.1777 14.98330328173460","cat":"starlink"},{"name":"STARLINK-5526","l1":"1 56496U 23064BA  26183.70788470 -.00000727  00000+0 -53153-4 0  9994","l2":"2 56496  69.9996 174.3493 0004433 259.6880 100.3780 14.98322918173460","cat":"starlink"},{"name":"STARLINK-5527","l1":"1 56497U 23064BB  26183.70387374  .00000186  00000+0  23355-4 0  9991","l2":"2 56497  69.9994 174.3358 0003995 265.4202  94.6501 14.98330712173461","cat":"starlink"},{"name":"STARLINK-5522","l1":"1 56498U 23064BC  26183.71623155  .00000372  00000+0  38954-4 0  9991","l2":"2 56498  69.9995 174.3784 0003341 269.4153  90.6623 14.98331183173464","cat":"starlink"},{"name":"STARLINK-5775","l1":"1 56503U 23065A   26183.71447764 -.00000770  00000+0 -18463-4 0  9996","l2":"2 56503  43.0033 282.6912 0001498 268.5396  91.5284 15.27577429174195","cat":"starlink"},{"name":"STARLINK-5716","l1":"1 56504U 23065B   26183.59784131 -.00000432  00000+0 -61786-5 0  9997","l2":"2 56504  43.0056 283.5321 0001717 283.1382  76.9278 15.27573575174173","cat":"starlink"},{"name":"STARLINK-5763","l1":"1 56505U 23065C   26183.68892395  .00000352  00000+0  22323-4 0  9992","l2":"2 56505  43.0021 283.3523 0001428 270.9643  89.1045 15.27579477174187","cat":"starlink"},{"name":"STARLINK-5340","l1":"1 56506U 23065D   26183.60556094 -.00001032  00000+0 -27977-4 0  9996","l2":"2 56506  43.0017 272.2766 0001421 265.8089  94.2601 15.27581301174307","cat":"starlink"},{"name":"STARLINK-5333","l1":"1 56507U 23065E   26183.62371245 -.00000505  00000+0 -88471-5 0  9993","l2":"2 56507  43.0014 250.6422 0001257 270.8258  89.2450 15.27574256174559","cat":"starlink"},{"name":"STARLINK-5335","l1":"1 56508U 23065F   26183.70036551 -.00002506  00000+0 -81612-4 0  9993","l2":"2 56508  43.0062 282.5773 0002202 269.7138  90.3461 15.27553139174193","cat":"starlink"},{"name":"STARLINK-5334","l1":"1 56509U 23065G   26183.64652566 -.00001795  00000+0 -55739-4 0  9997","l2":"2 56509  43.0020 283.0338 0001121 264.5897  95.4827 15.27578626174184","cat":"starlink"},{"name":"STARLINK-5339","l1":"1 56510U 23065H   26183.63881902  .00000241  00000+0  18266-4 0  9993","l2":"2 56510  43.0015 282.9822 0001253 270.4564  89.6144 15.27584031174183","cat":"starlink"},{"name":"STARLINK-5351","l1":"1 56511U 23065J   26183.65294409 -.00000511  00000+0 -90398-5 0  9995","l2":"2 56511  43.0032 283.0769 0001380 275.8224  84.2470 15.27573604174185","cat":"starlink"},{"name":"STARLINK-5349","l1":"1 56512U 23065K   26183.57727670  .00001294  00000+0  56587-4 0  9996","l2":"2 56512  42.9996 283.3691 0001716 249.6140 110.4528 15.27555113174179","cat":"starlink"},{"name":"STARLINK-5329","l1":"1 56513U 23065L   26183.65680054 -.00000441  00000+0 -64942-5 0  9990","l2":"2 56513  43.0038 283.1099 0001181 279.0970  80.9748 15.27573566174181","cat":"starlink"},{"name":"STARLINK-5348","l1":"1 56515U 23065N   26183.72604282 -.00000341  00000+0 -28549-5 0  9991","l2":"2 56515  43.0028 282.7678 0001350 295.4647  64.6065 15.27573272174197","cat":"starlink"},{"name":"STARLINK-5342","l1":"1 56516U 23065P   26183.71576345 -.00000689  00000+0 -15519-4 0  9996","l2":"2 56516  43.0032 282.6945 0001438 272.0723  87.9964 15.27575558174197","cat":"starlink"},{"name":"STARLINK-5345","l1":"1 56517U 23065Q   26183.60683558 -.00000707  00000+0 -16157-4 0  9990","l2":"2 56517  43.0044 283.5846 0001378 284.1222  75.9476 15.27577214174176","cat":"starlink"},{"name":"STARLINK-5346","l1":"1 56518U 23065R   26183.59912535 -.00000436  00000+0 -63305-5 0  9996","l2":"2 56518  43.0047 283.5352 0001501 290.6239  69.4451 15.27572674174176","cat":"starlink"},{"name":"STARLINK-6313","l1":"1 56519U 23065S   26183.67864141  .00000322  00000+0  21226-4 0  9992","l2":"2 56519  43.0040 283.2591 0002195 274.4314  85.6287 15.27580603174185","cat":"starlink"},{"name":"STARLINK-6344","l1":"1 56520U 23065T   26183.66836719  .00000353  00000+0  22366-4 0  9993","l2":"2 56520  43.0051 283.1899 0001446 270.4549  89.6137 15.27571895174184","cat":"starlink"},{"name":"STARLINK-6333","l1":"1 56521U 23065U   26183.68071924  .00000386  00000+0  23570-4 0  9999","l2":"2 56521  43.0040 286.6824 0001777 302.7238  57.3442 15.27576527174144","cat":"starlink"},{"name":"STARLINK-6327","l1":"1 56522U 23065V   26183.60939850  .00001163  00000+0  51784-4 0  9995","l2":"2 56522  43.0019 283.5996 0001562 270.9994  89.0679 15.27575384174171","cat":"starlink"},{"name":"STARLINK-6328","l1":"1 56523U 23065W   26183.63124986 -.00000577  00000+0 -11447-4 0  9997","l2":"2 56523  43.0007 283.7665 0001355 267.6441  92.4255 15.27573983174175","cat":"starlink"},{"name":"STARLINK-6323","l1":"1 56524U 23065X   26183.69020911  .00000180  00000+0  16063-4 0  9994","l2":"2 56524  43.0023 283.3509 0001439 267.2129  92.8558 15.27577624174186","cat":"starlink"},{"name":"STARLINK-6329","l1":"1 56525U 23065Y   26183.72110075  .00001163  00000+0  53044-4 0  9992","l2":"2 56525  42.9997 293.7910 0001398 274.6287  85.4405 15.26743063174064","cat":"starlink"}]